NORAD_CAT_ID,OBJECT_NAME,OBJECT_TYPE,EPOCH,MEAN_MOTION,ECCENTRICITY,INCLINATION,RA_OF_ASC_NODE,ARG_OF_PERICENTER,MEAN_ANOMALY,BSTAR,MEAN_MOTION_DOT,MEAN_MOTION_DDOT,TLE_LINE0,TLE_LINE1,TLE_LINE2,SEMIMAJOR_AXIS,PERIOD,APOGEE,PERIGEE,DECAYED
53838.0,STARLINK-4773,PAYLOAD,2024-07-20 23:05:21,15.08829749,0.0001006,53.2168,93.1048,88.3253,271.7854,2.9061e-05,1.75e-06,0.0,0 STARLINK-4773,1 53838U 22114W   24202.96204894  .00000175  00000-0  29061-4 0  9994,2 53838  53.2168  93.1048 0001006  88.3253 271.7854 15.08829749102881,6917.912,95.438,540.473,539.081,0.0
53838.0,STARLINK-4773,PAYLOAD,2024-07-21 21:20:44,15.0883854,0.0001113,53.2164,88.9404,90.7679,269.3441,0.00016355,2.316e-05,0.0,0 STARLINK-4773,1 53838U 22114W   24203.88940642  .00002316  00000-0  16355-3 0  9994,2 53838  53.2164  88.9404 0001113  90.7679 269.3441 15.08838540103024,6917.885,95.438,540.52,538.98,0.0
53838.0,STARLINK-4773,PAYLOAD,2024-07-21 22:56:07,15.08842503,0.0001129,53.2167,88.6431,92.3319,267.7803,5.7751e-05,6.31e-06,0.0,0 STARLINK-4773,1 53838U 22114W   24203.95564474  .00000631  00000-0  57751-4 0  9991,2 53838  53.2167  88.6431 0001129  92.3319 267.7803 15.08842503102498,6917.873,95.437,540.519,538.957,0.0
53838.0,STARLINK-4773,PAYLOAD,2024-07-22 22:46:54,15.08844707,0.0001187,53.2164,84.1851,84.1376,275.9751,0.00020495,2.976e-05,0.0,0 STARLINK-4773,1 53838U 22114W   24204.94924459  .00002976  00000-0  20495-3 0  9992,2 53838  53.2164  84.1851 0001187  84.1376 275.9751 15.08844707103186,6917.866,95.437,540.552,538.91,0.0
53838.0,STARLINK-4773,PAYLOAD,2024-07-23 16:16:09,15.08841668,0.0001292,53.2169,80.918,83.2872,276.8267,9.8168e-05,1.275e-05,0.0,0 STARLINK-4773,1 53838U 22114W   24205.67788666  .00001275  00000-0  98168-4 0  9995,2 53838  53.2169  80.9180 0001292  83.2872 276.8267 15.08841668102755,6917.875,95.437,540.634,538.847,0.0
53838.0,STARLINK-4773,PAYLOAD,2024-07-23 22:37:42,15.08830136,0.0001338,53.2153,79.7286,141.9199,218.1887,-6.8362e-05,-1.375e-05,0.0,0 STARLINK-4773,1 53838U 22114W   24205.94285000 -.00001375  00000-0 -68362-4 0  9995,2 53838  53.2153  79.7286 0001338 141.9199 218.1887 15.08830136103336,6917.911,95.438,540.701,538.85,0.0
53838.0,STARLINK-4773,PAYLOAD,2024-07-24 22:28:28,15.08843798,0.000129,53.2181,75.2562,151.4797,208.6266,1.5111e-05,-4.7e-07,0.0,0 STARLINK-4773,1 53838U 22114W   24206.93644562 -.00000047  00000-0  15111-4 0  9995,2 53838  53.2181  75.2562 0001290 151.4797 208.6266 15.08843798103481,6917.869,95.437,540.626,538.841,0.0
53838.0,STARLINK-4773,PAYLOAD,2024-07-25 00:03:51,15.08844833,0.0001092,53.2184,74.961,150.8445,209.2608,2.8839e-05,1.71e-06,0.0,0 STARLINK-4773,1 53838U 22114W   24207.00268509  .00000171  00000-0  28839-4 0  9995,2 53838  53.2184  74.9610 0001092 150.8445 209.2608 15.08844833102956,6917.866,95.437,540.486,538.975,0.0
53838.0,STARLINK-4773,PAYLOAD,2024-07-25 14:22:20,15.08835687,0.0001191,53.2181,72.2894,116.518,243.5934,7.4746e-05,9.02e-06,0.0,0 STARLINK-4773,1 53838U 22114W   24207.59885412  .00000902  00000-0  74746-4 0  9997,2 53838  53.2181  72.2894 0001191 116.5180 243.5934 15.08835687103044,6917.894,95.438,540.582,538.935,0.0
53838.0,STARLINK-4773,PAYLOAD,2024-07-25 22:19:13,15.08943656,0.0001318,53.2184,70.7999,182.4352,177.6634,-0.0016259,-0.00026144,0.0,0 STARLINK-4773,1 53838U 22114W   24207.93002002 -.00026144  00000-0 -16259-2 0  9992,2 53838  53.2184  70.7999 0001318 182.4352 177.6634 15.08943656103635,6917.564,95.431,540.34,538.517,0.0
53838.0,STARLINK-4773,PAYLOAD,2024-07-25 23:54:40,15.08820597,0.0001221,53.218,70.504,149.6811,210.4252,0.00017197,2.449e-05,0.0,0 STARLINK-4773,1 53838U 22114W   24207.99630144  .00002449  00000-0  17197-3 0  9995,2 53838  53.2180  70.5040 0001221 149.6811 210.4252 15.08820597103106,6917.94,95.439,540.649,538.96,0.0
53838.0,STARLINK-4773,PAYLOAD,2024-07-26 14:13:08,15.08845905,9.78e-05,53.2171,67.8285,98.5412,261.5691,6.2512e-05,7.07e-06,0.0,0 STARLINK-4773,1 53838U 22114W   24208.59245378  .00000707  00000-0  62512-4 0  9990,2 53838  53.2171  67.8285 0000978  98.5412 261.5691 15.08845905103736,6917.862,95.437,540.404,539.051,0.0
53838.0,STARLINK-4773,PAYLOAD,2024-07-26 23:45:25,15.08858224,9.58e-05,53.2168,66.0471,94.8948,265.2154,0.00017506,2.501e-05,0.0,0 STARLINK-4773,1 53838U 22114W   24208.98988220  .00002501  00000-0  17506-3 0  9999,2 53838  53.2168  66.0471 0000958  94.8948 265.2154 15.08858224103251,6917.825,95.436,540.352,539.027,0.0
53838.0,STARLINK-4773,PAYLOAD,2024-07-27 22:00:50,15.08842206,9.25e-05,53.2164,61.8769,134.3366,225.7702,0.0001223,1.659e-05,0.0,0 STARLINK-4773,1 53838U 22114W   24209.91724933  .00001659  00000-0  12230-3 0  9994,2 53838  53.2164  61.8769 0000925 134.3366 225.7702 15.08842206103936,6917.874,95.437,540.379,539.099,0.0
53838.0,STARLINK-4773,PAYLOAD,2024-07-28 20:16:14,15.0883994,0.0001349,53.2175,57.7175,71.2765,288.8373,-9.3129e-05,-1.77e-05,0.0,0 STARLINK-4773,1 53838U 22114W   24210.84461566 -.00001770  00000-0 -93129-4 0  9991,2 53838  53.2175  57.7175 0001349  71.2765 288.8373 15.08839940103537,6917.881,95.438,540.679,538.812,0.0
53838.0,STARLINK-4773,PAYLOAD,2024-07-29 07:23:56,15.08842626,0.0001072,53.2184,55.6367,100.5251,259.5862,0.00017061,2.429e-05,0.0,0 STARLINK-4773,1 53838U 22114W   24211.30829049  .00002429  00000-0  17061-3 0  9997,2 53838  53.2184  55.6367 0001072 100.5251 259.5862 15.08842626104147,6917.872,95.437,540.479,538.996,0.0
53838.0,STARLINK-4773,PAYLOAD,2024-07-29 20:07:01,15.08839356,0.0001224,53.2182,53.2596,92.249,267.8642,0.0001723,2.455e-05,0.0,0 STARLINK-4773,1 53838U 22114W   24211.83821294  .00002455  00000-0  17230-3 0  9996,2 53838  53.2182  53.2596 0001224  92.2490 267.8642 15.08839356104227,6917.882,95.438,540.594,538.901,0.0
53838.0,STARLINK-4773,PAYLOAD,2024-07-29 21:42:24,15.08840939,0.0001248,53.2184,52.962,92.3194,267.7941,0.00018298,2.626e-05,0.0,0 STARLINK-4773,1 53838U 22114W   24211.90445220  .00002626  00000-0  18298-3 0  9990,2 53838  53.2184  52.9620 0001248  92.3194 267.7941 15.08840939103691,6917.878,95.437,540.606,538.879,0.0
53838.0,STARLINK-4773,PAYLOAD,2024-07-30 19:57:47,15.08859381,0.0001196,53.2189,48.8,86.1873,273.9255,0.00020649,3.002e-05,0.0,0 STARLINK-4773,1 53838U 22114W   24212.83179762  .00003002  00000-0  20649-3 0  9990,2 53838  53.2189  48.8000 0001196  86.1873 273.9255 15.08859381103833,6917.821,95.436,540.514,538.859,0.0
53838.0,STARLINK-4773,PAYLOAD,2024-07-30 21:33:10,15.08861735,0.0001247,53.2182,48.5024,85.0073,275.1062,0.00030281,4.537e-05,0.0,0 STARLINK-4773,1 53838U 22114W   24212.89803988  .00004537  00000-0  30281-3 0  9997,2 53838  53.2182  48.5024 0001247  85.0073 275.1062 15.08861735104383,6917.814,95.436,540.542,538.816,0.0
53838.0,STARLINK-4773,PAYLOAD,2024-07-31 13:27:02,15.08842573,0.0001442,53.217,45.5272,84.7337,275.382,1.0212e-05,-1.25e-06,0.0,0 STARLINK-4773,1 53838U 22114W   24213.56044493 -.00000125  00000-0  10212-4 0  9993,2 53838  53.2170  45.5272 0001442  84.7337 275.3820 15.08842573104482,6917.873,95.437,540.735,538.74,0.0
53838.0,STARLINK-4773,PAYLOAD,2024-07-31 19:48:36,15.08821448,0.0001045,53.2176,44.3387,99.933,260.178,-0.00027102,-4.596e-05,0.0,0 STARLINK-4773,1 53838U 22114W   24213.82542071 -.00004596  00000-0 -27102-3 0  9999,2 53838  53.2176  44.3387 0001045  99.9330 260.1780 15.08821448104522,6917.937,95.439,540.525,539.079,0.0
53838.0,STARLINK-4773,PAYLOAD,2024-08-01 05:20:54,15.08832668,0.0001133,53.2179,42.5547,101.842,258.2699,-0.00014838,-2.648e-05,0.0,0 STARLINK-4773,1 53838U 22114W   24214.22285260 -.00002648  00000-0 -14838-3 0  9996,2 53838  53.2179  42.5547 0001133 101.8420 258.2699 15.08832668104044,6917.903,95.438,540.552,538.984,0.0
53838.0,STARLINK-4773,PAYLOAD,2024-08-01 18:03:59,15.08837481,0.0001352,53.2164,40.1748,96.0151,264.0995,0.00012819,1.753e-05,0.0,0 STARLINK-4773,1 53838U 22114W   24214.75277272  .00001753  00000-0  12819-3 0  9999,2 53838  53.2164  40.1748 0001352  96.0151 264.0995 15.08837481104664,6917.888,95.438,540.688,538.818,0.0
53838.0,STARLINK-4773,PAYLOAD,2024-08-02 05:11:40,15.08857693,0.0001119,53.2169,38.0928,81.9471,278.1648,0.00040248,6.126e-05,0.0,0 STARLINK-4773,1 53838U 22114W   24215.21644159  .00006126  00000-0  40248-3 0  9999,2 53838  53.2169  38.0928 0001119  81.9471 278.1648 15.08857693104190,6917.826,95.436,540.465,538.917,0.0
53838.0,STARLINK-4773,PAYLOAD,2024-08-02 21:05:33,15.0883298,0.000104,53.2161,35.1175,108.4676,251.6429,0.00015604,2.196e-05,0.0,0 STARLINK-4773,1 53838U 22114W   24215.87886084  .00002196  00000-0  15604-3 0  9997,2 53838  53.2161  35.1175 0001040 108.4676 251.6429 15.08832980104295,6917.902,95.438,540.486,539.047,0.0
53838.0,STARLINK-4773,PAYLOAD,2024-08-03 05:02:29,15.08842089,0.0001257,53.2171,33.6314,84.2997,275.8139,0.00048954,7.512e-05,0.0,0 STARLINK-4773,1 53838U 22114W   24216.21005889  .00007512  00000-0  48954-3 0  9993,2 53838  53.2171  33.6314 0001257  84.2997 275.8139 15.08842089104344,6917.874,95.437,540.609,538.869,0.0
53838.0,STARLINK-4773,PAYLOAD,2024-08-03 20:56:20,15.08861762,0.0001334,53.2171,30.6573,80.7696,279.3447,0.0013736,0.00021653,0.0,0 STARLINK-4773,1 53838U 22114W   24216.87246033  .00021653  00000-0  13736-2 0  9994,2 53838  53.2171  30.6573 0001334  80.7696 279.3447 15.08861762104981,6917.814,95.436,540.602,538.756,0.0
53838.0,STARLINK-4773,PAYLOAD,2024-08-04 04:53:15,15.08867728,0.000132,53.2155,29.1746,80.7168,279.3974,0.0011324,0.00017794,0.0,0 STARLINK-4773,1 53838U 22114W   24217.20365556  .00017794  00000-0  11324-2 0  9996,2 53838  53.2155  29.1746 0001320  80.7168 279.3974 15.08867728105037,6917.796,95.436,540.574,538.747,0.0
53838.0,STARLINK-4773,PAYLOAD,2024-08-04 17:36:20,15.08857516,0.0001053,53.217,26.7913,102.0507,258.0603,0.00064483,9.994e-05,0.0,0 STARLINK-4773,1 53838U 22114W   24217.73357467  .00009994  00000-0  64483-3 0  9994,2 53838  53.2170  26.7913 0001053 102.0507 258.0603 15.08857516104576,6917.827,95.436,540.42,538.963,0.0
